{"type":"FeatureCollection","features":[{"type":"Feature","properties":{"shapeName":"Center (Riadh, Qassim)","shapeISO":"SAU-CENTER","shapeGroup":"SAU","shapeType":"GDL_GROUP","sourceAdm1Names":"Riyadh Region; Al-Qassim Region"},"geometry":{"type":"Polygon","coordinates":[[[44.7255853,27.5249786],[44.8951713,27.5802261],[44.9794254,27.6727361],[45.0452327,27.6281822],[45.1885986,27.2827759],[45.2469406,27.2283287],[45.5266647,27.0852737],[45.6933289,27.0577736],[45.9336014,26.8499947],[46.2305527,26.8197174],[46.5891647,26.6077766],[46.8305435,26.6272163],[47.0602646,26.4027748],[47.4299927,26.2655487],[47.4741516,26.0686035],[47.4669418,25.0763817],[47.496666,24.7824936],[47.5955429,24.6872177],[47.8694305,24.5199966],[48.1361008,24.2766647],[48.2705536,24.0680504],[48.3099976,23.8841629],[48.3094406,23.6772194],[47.7450104,19.5311317],[46.9738846,19.392498],[45.176384,19.2561073],[44.9152756,19.2927742],[44.7636108,19.3586082],[44.4963837,19.5258331],[44.1238861,19.8447189],[43.9213867,20.123333],[43.9674988,20.3358307],[44.0630493,20.4972191],[44.0483322,20.5847206],[43.8155518,20.8591652],[43.6674957,20.9761086],[43.390831,21.3616638],[43.4374924,21.6116638],[43.4216614,21.7999992],[43.5091629,21.9561081],[43.457222,22.310276],[43.4866638,22.4988861],[43.3097153,22.5555534],[43.1249924,22.5172195],[43.0174942,22.5516663],[42.9808273,22.6138878],[43.0138855,22.8363876],[42.9605484,22.8869438],[42.4616623,22.9266663],[42.3577728,22.9916649],[42.2249985,23.2727776],[42.1047211,23.680275],[41.976387,23.7891655],[41.9852676,24.1897163],[42.0261078,24.3194427],[41.9988785,24.4152756],[42.0905457,24.5433273],[42.1372697,24.8514229],[42.0279157,24.9133935],[41.8180729,25.1207145],[41.701798,25.1798332],[41.6321667,25.2834034],[41.4344158,25.358804],[41.3942755,25.4566014],[41.2374159,25.4797732],[41.3527042,25.5738056],[41.4378332,25.7230301],[41.6780715,25.7250295],[41.7274068,25.8130868],[41.8182806,25.8823446],[41.825832,25.9672892],[41.923064,25.9538763],[41.9108606,25.9997389],[41.9481297,26.0955824],[42.031559,26.1268158],[42.0706121,26.18],[42.1603236,26.1550329],[42.2016221,26.2384841],[42.1624745,26.3445271],[42.2782636,26.4683088],[42.3376588,26.4758243],[42.3597586,26.4215275],[42.4051374,26.5153969],[42.4572816,26.5060522],[42.6182073,26.6130201],[42.7133365,26.7470156],[42.7109079,26.8226779],[42.8897699,26.8696044],[42.9386354,26.9197289],[43.0113206,26.8776725],[43.1165608,26.9601678],[43.2161482,27.1190152],[43.2135636,27.2094549],[43.3379568,27.2500209],[43.3340176,27.285221],[43.2654127,27.311582],[43.2864196,27.4138308],[43.3829022,27.4306755],[43.4153701,27.4955982],[43.4746836,27.471176],[43.508874,27.5021225],[43.7157851,27.5170156],[43.7033926,27.73775],[43.7317269,27.9456435],[43.9276159,28.1094979],[43.9106978,27.9537547],[43.9607617,27.934361],[43.9639659,27.9026098],[44.0829846,27.9652952],[44.2285514,27.9501571],[44.5043376,27.777524],[44.7255853,27.5249786]]]}},{"type":"Feature","properties":{"shapeName":"Eastern province","shapeISO":"SAU-EASTERN","shapeGroup":"SAU","shapeType":"GDL_GROUP","sourceAdm1Names":"Eastern Region"},"geometry":{"type":"MultiPolygon","coordinates":[[[[45.0038111,27.7205229],[45.1422903,27.8769578],[45.2172348,28.1369219],[45.3315733,28.1739738],[45.3531919,28.2088038],[45.2775267,28.4069746],[45.0522128,28.6632756],[45.146614,28.7290923],[45.1583842,28.7857811],[45.6520091,28.7845801],[45.7050948,28.8730964],[45.754097,28.8745376],[45.7886868,28.9285843],[46.0054134,29.0237963],[46.0511502,29.0932017],[46.4261169,29.0612087],[46.5631209,29.1000448],[47.4657474,29.0003021],[47.58714,28.8367174],[47.6058748,28.6552758],[47.7044606,28.5243622],[48.430522379517,28.534353102252968],[48.5015194,28.4945825],[48.5003597,28.4387649],[48.5295854,28.418698],[48.4688177,28.3829],[48.5426417,28.4091938],[48.5148012,28.3310349],[48.6355085,28.1948366],[48.6101111,28.1622519],[48.6222504,28.0855757],[48.6934641,28.0163303],[48.7934976,27.9992001],[48.7476715,27.952681],[48.8902979,27.8188918],[48.8905739,27.7665351],[48.8441836,27.7223782],[48.8698436,27.7923449],[48.8418102,27.813384],[48.8370224,27.7630304],[48.80604,27.750969],[48.8299241,27.8292717],[48.8113224,27.8192052],[48.7842538,27.7133308],[48.8027991,27.7107974],[48.805947,27.7411947],[48.8084808,27.7445782],[48.8160196,27.7434116],[48.8465939,27.6585057],[48.8809717,27.6731811],[48.8777084,27.6402108],[48.8496637,27.6418362],[48.873427,27.6226563],[48.8738649,27.6074889],[48.8495102,27.6275594],[48.8485418,27.6032406],[48.8766758,27.5964727],[48.8965374,27.6296958],[48.9156882,27.6248412],[48.8968751,27.5893216],[48.9041193,27.5651259],[48.9691584,27.6221619],[49.0403996,27.5605808],[49.2542567,27.5258551],[49.3071888,27.4701759],[49.3153495,27.4455805],[49.3123478,27.4249654],[49.2946962,27.460641],[49.183628,27.4166594],[49.1889236,27.4454084],[49.1645084,27.4224532],[49.1427112,27.4330967],[49.1460924,27.4377718],[49.1434576,27.4401799],[49.1389346,27.4406745],[49.1228441,27.4060797],[49.2030358,27.3751111],[49.2526419,27.4087957],[49.2721569,27.3864026],[49.2331163,27.3679074],[49.217611,27.3106052],[49.2836324,27.3430715],[49.3187452,27.3260065],[49.3207774,27.1812043],[49.3508459,27.1414308],[49.3639789,27.1913406],[49.4123013,27.1945117],[49.3668505,27.1184654],[49.4416793,27.0814992],[49.4692622,27.0820596],[49.4200292,27.0984936],[49.4324716,27.1441669],[49.4458385,27.1133159],[49.5223019,27.1191016],[49.4953472,27.1623485],[49.5335697,27.1956515],[49.4640156,27.2345545],[49.4854584,27.2980721],[49.4720229,27.2593382],[49.454293,27.2820388],[49.4864104,27.3446449],[49.548222,27.3543051],[49.7021227,27.3007659],[49.6319721,27.314761],[49.5652976,27.2811636],[49.5618968,27.3216461],[49.5277276,27.3354391],[49.4876814,27.3040131],[49.5544424,27.1630981],[49.5822995,27.18135],[49.599652,27.2508977],[49.6269943,27.2835835],[49.5893014,27.2084964],[49.6127173,27.1919688],[49.6143308,27.154814],[49.5892219,27.2074826],[49.5851698,27.1668849],[49.5676017,27.1460515],[49.5836682,27.0919319],[49.6344704,27.0714045],[49.6169739,27.0613682],[49.686339,27.0987343],[49.7172453,27.087672],[49.6158081,27.0550945],[49.6462507,27.0234448],[49.7001162,27.0308739],[49.6722267,26.9802844],[49.7822283,26.8985196],[49.7877644,26.8976968],[49.777177,26.9048907],[49.7759468,26.9083133],[49.7819899,26.9202004],[49.8464119,26.8768649],[49.8608309,26.9009446],[49.8692707,26.8604293],[49.9545426,26.8527337],[49.9969799,26.8212892],[50.1638836,26.6394429],[50.122026,26.6832981],[50.0378294,26.6700215],[49.9942193,26.7440798],[49.9860765,26.6603987],[50.0228722,26.6552926],[50.006727,26.627703],[50.0214992,26.5707113],[50.079095,26.6005245],[50.0907696,26.5707215],[50.0858322,26.5393547],[50.021613,26.5700718],[50.0418728,26.4977228],[50.074127,26.4651698],[50.0878811,26.4825894],[50.0958607,26.4792033],[50.0969261,26.483889],[50.0987006,26.4861595],[50.1016539,26.4871926],[50.1050967,26.48641],[50.1047222,26.4572133],[50.1347429,26.4971918],[50.131376,26.4369165],[50.1627824,26.422375],[50.1930041,26.4737552],[50.1804389,26.4779047],[50.1911866,26.5249792],[50.1976302,26.5244272],[50.2135318,26.472716],[50.1708484,26.4269605],[50.2155252,26.4203154],[50.2016979,26.3953178],[50.2380827,26.3707628],[50.2206168,26.1843387],[50.183969,26.1503979],[50.1693421,26.1794366],[50.1559196,26.0393501],[50.1316672,26.0299995],[50.1415111,26.0568404],[50.0327629,26.2017795],[49.9879326,26.1133193],[50.0134794,26.0799914],[50.0003048,25.9891635],[50.0329992,26.0219994],[50.1059805,25.9836791],[50.1331422,25.9309426],[50.1093075,25.8820527],[50.2626581,25.6724045],[50.2650148,25.6121964],[50.235471,25.6828159],[50.1372118,25.7411993],[50.156016,25.693701],[50.1888633,25.6601268],[50.2094964,25.6811332],[50.2189207,25.6201599],[50.399136,25.4115542],[50.3618168,25.5027598],[50.3807676,25.5123632],[50.4931088,25.4031579],[50.5317559,25.3008533],[50.5232519,25.2310785],[50.5587947,25.18306],[50.5618377,25.0435705],[50.5865996,25.0315446],[50.5819504,25.0696237],[50.6844216,24.8904801],[50.7279181,24.8717765],[50.7688269,24.7202415],[50.8116248,24.7443678],[50.928351,24.54682],[51.0985345,24.4707534],[51.3107559,24.5072306],[51.4017169,24.6256758],[51.5048512,24.5746586],[51.3232178,24.4299839],[51.2794441,24.3407515],[51.2811466,24.2848908],[51.4422273,24.3253367],[51.5341656,24.2507497],[51.589054,24.2546144],[51.5903761,24.1269707],[52.5810404,22.9392035],[55.1373379,22.6316214],[55.2091786,22.7087913],[55.6666985,22.0],[55.0,20.0],[52.0,19.0],[50.7833376,18.7833027],[49.1167023,18.6166994],[48.1833017,18.166702],[47.6000003,17.4499994],[47.466699,17.1166985],[47.5116653,17.7744408],[48.3094406,23.6772194],[48.2893219,24.0],[48.2361069,24.1388817],[48.1361008,24.2766647],[47.8694305,24.5199966],[47.5955429,24.6872177],[47.496666,24.7824936],[47.4669418,25.0763817],[47.4741516,26.0686035],[47.4299927,26.2655487],[47.0602646,26.4027748],[46.8305435,26.6272163],[46.5891647,26.6077766],[46.2305527,26.8197174],[45.9336014,26.8499947],[45.6933289,27.0577736],[45.5266647,27.0852737],[45.2469406,27.2283287],[45.1885986,27.2827759],[45.0452327,27.6281822],[44.9794254,27.6727361],[45.0038111,27.7205229]]],[[[50.3336681,25.5674883],[50.3412328,25.5590298],[50.3518805,25.5047751],[50.2981691,25.5729842],[50.3336681,25.5674883]]],[[[49.5908404,27.1275805],[49.5862052,27.1074673],[49.5804726,27.1061231],[49.5850969,27.1270084],[49.5908404,27.1275805]]],[[[49.4956092,27.1427997],[49.4955485,27.1366249],[49.4999906,27.1377014],[49.5046101,27.1255306],[49.4862665,27.1318946],[49.4837916,27.1555355],[49.4956092,27.1427997]]],[[[49.3647424,27.2138798],[49.3650563,27.2120826],[49.3651659,27.2143991],[49.3632137,27.2200357],[49.3578881,27.230006],[49.3647424,27.2138798]]],[[[49.3351089,27.2523743],[49.3520121,27.2577193],[49.3316747,27.2317541],[49.3319293,27.2435902],[49.3351089,27.2523743]]],[[[49.3015075,27.3798176],[49.3146003,27.3619698],[49.2898105,27.3534368],[49.2837269,27.3649376],[49.3015075,27.3798176]]],[[[49.2221991,27.4199862],[49.2267389,27.3974078],[49.2116703,27.3936142],[49.2101449,27.4167452],[49.2221991,27.4199862]]]]}},{"type":"Feature","properties":{"shapeName":"North (Northern Borders, Al Jawf, Hail)","shapeISO":"SAU-NORTH","shapeGroup":"SAU","shapeType":"GDL_GROUP","sourceAdm1Names":"Northern Borders Region; Al Jawf Region; Hayel Region"},"geometry":{"type":"Polygon","coordinates":[[[43.8865465,28.0812822],[43.7317269,27.9456435],[43.7033926,27.73775],[43.7157851,27.5170156],[43.508874,27.5021225],[43.4746836,27.471176],[43.4153701,27.4955982],[43.3829022,27.4306755],[43.2864196,27.4138308],[43.2654127,27.311582],[43.3340176,27.285221],[43.3379568,27.2500209],[43.2135636,27.2094549],[43.2161482,27.1190152],[43.1165608,26.9601678],[43.0113206,26.8776725],[42.9386354,26.9197289],[42.8897699,26.8696044],[42.7109079,26.8226779],[42.7133365,26.7470156],[42.6182073,26.6130201],[42.4572816,26.5060522],[42.4051374,26.5153969],[42.3597586,26.4215275],[42.3376588,26.4758243],[42.2782636,26.4683088],[42.1624745,26.3445271],[42.2016221,26.2384841],[42.1895658,26.1886335],[42.1603236,26.1550329],[42.0706121,26.18],[42.031559,26.1268158],[41.9481297,26.0955824],[41.9108606,25.9997389],[41.923064,25.9538763],[41.825832,25.9672892],[41.8182806,25.8823446],[41.7274068,25.8130868],[41.6780715,25.7250295],[41.4581027,25.7352687],[41.3527042,25.5738056],[41.2374159,25.4797732],[41.1515229,25.497478],[41.0636996,25.5681031],[40.8645515,25.5759647],[40.7140263,25.4171523],[40.4966614,25.4313178],[40.456545,25.3827402],[40.4542982,25.2909779],[40.0377472,25.3705158],[39.963745,25.478704],[39.9619854,26.1495301],[39.8880581,26.2643478],[39.8861978,26.3976213],[39.7610371,26.5978446],[39.6681289,26.6667362],[39.6593155,26.7307731],[39.5140834,26.7525958],[39.4931584,26.8113931],[39.502297,26.8582799],[39.733497,27.1198759],[39.7855396,27.2302054],[39.8871073,27.2093144],[39.8983171,27.16504],[39.9864746,27.1233167],[40.0110057,27.2786605],[39.9248688,27.4283137],[39.9083913,27.6058284],[39.8323887,27.7646342],[39.7040727,27.8657686],[39.4028499,27.9808902],[39.3651919,28.0477776],[39.5022069,28.2383689],[39.7341134,28.4529794],[39.7891475,28.5382093],[39.7803226,28.5738035],[39.3131222,28.7521771],[38.9668317,29.0149997],[38.5805844,29.2355681],[38.4879744,29.2535246],[38.2871495,29.1859787],[38.2169168,29.190723],[38.2042583,29.2249693],[38.2509558,29.3210676],[38.3974487,29.5053191],[38.2051752,29.6060905],[37.9216205,29.6973088],[37.6043567,29.8964266],[37.5016142,29.9998026],[37.6655574,30.3326227],[37.9971461,30.5006607],[37.0008966,31.5001143],[39.0063116,32.0006304],[39.2009164,32.1543377],[40.4132544,31.9480762],[41.4407261,31.3732074],[42.0855991,31.1116578],[44.7219353,29.1984863],[46.0511502,29.0932017],[46.0054134,29.0237963],[45.7886868,28.9285843],[45.754097,28.8745376],[45.7050948,28.8730964],[45.6520091,28.7845801],[45.1583842,28.7857811],[45.146614,28.7290923],[45.0522128,28.6632756],[45.2775267,28.4069746],[45.3519908,28.1979945],[45.2172348,28.1369219],[45.1422903,27.8769578],[44.8951713,27.5802261],[44.7207877,27.5252248],[44.5043376,27.777524],[44.2285514,27.9501571],[44.0829846,27.9652952],[43.9639659,27.9026098],[43.9607617,27.934361],[43.9106978,27.9537547],[43.9276159,28.1094979],[43.8865465,28.0812822]]]}},{"type":"Feature","properties":{"shapeName":"South (Bahah, Jizan, Asir, Najran)","shapeISO":"SAU-SOUTH","shapeGroup":"SAU","shapeType":"GDL_GROUP","sourceAdm1Names":"Al Bahah Region; Jazan Region; 'Asir Region; Najran Region"},"geometry":{"type":"MultiPolygon","coordinates":[[[[41.9109893,16.4246777],[41.9017638,16.4179796],[41.8994457,16.4296539],[41.9061138,16.4294952],[41.9109893,16.4246777]]],[[[41.9221091,16.6314736],[41.9168381,16.6272782],[41.9242703,16.6131064],[41.906177,16.6263475],[41.9221091,16.6314736]]],[[[41.8785646,16.6503787],[41.8854149,16.6394173],[41.8427903,16.6670763],[41.853209,16.6665913],[41.8785646,16.6503787]]],[[[41.7426991,16.7295897],[41.7934609,16.727812],[41.8327127,16.679273],[41.7217534,16.7287436],[41.7426991,16.7295897]]],[[[41.7410926,16.8003173],[41.7347033,16.8069053],[41.7604357,16.8016522],[41.727313,16.7939236],[41.7410926,16.8003173]]],[[[41.5769628,16.882284],[41.6149518,16.8270914],[41.6352294,16.8132757],[41.5839301,16.82915],[41.5769628,16.882284]]],[[[41.6199391,16.839522],[41.6282831,16.8284681],[41.6065554,16.8485622],[41.5841325,16.8921791],[41.6199391,16.839522]]],[[[41.7335281,16.9218908],[41.7357676,16.9160091],[41.7137918,16.9040796],[41.7114758,16.9143333],[41.7335281,16.9218908]]],[[[41.6770069,16.9595691],[41.7273465,16.9315684],[41.6795527,16.8906629],[41.6511228,16.9192701],[41.6770069,16.9595691]]],[[[41.8112595,16.9722623],[41.7998474,16.9515001],[41.7877732,16.9855298],[41.8078953,16.9814723],[41.8112595,16.9722623]]],[[[41.857345,17.0142394],[41.8864081,17.008167],[41.8962235,17.0028805],[41.9151029,16.9823527],[41.9373419,16.9796004],[41.9421943,16.9523973],[41.857345,17.0142394]]],[[[41.7561214,17.0615781],[41.7723052,17.0522211],[41.7391151,17.0513849],[41.7435833,17.0641936],[41.7561214,17.0615781]]],[[[41.9359798,17.0738525],[41.9203975,17.0783233],[41.9091242,17.0932834],[41.9160721,17.0926688],[41.9359798,17.0738525]]],[[[41.6977768,19.7930527],[41.4974976,19.765831],[41.4277725,19.6433296],[41.363884,19.4166641],[41.288887,19.3663864],[41.1899948,19.3769417],[41.1080551,19.4794426],[40.9633331,19.5802765],[40.9536057,19.9541664],[40.9255524,19.996109],[40.8194427,20.0261078],[40.7949982,20.0841637],[40.9111099,20.1963882],[41.1355515,20.2472191],[41.2533264,20.471386],[41.2247162,20.6599998],[41.2844391,20.7563858],[41.3913879,20.748333],[41.4638824,20.6055527],[41.5194397,20.5655518],[41.9744415,20.6774979],[42.0366592,20.6197205],[42.1674957,20.3766632],[42.274437,20.3419418],[42.6347198,20.6258316],[42.8208313,20.7094421],[42.9444427,20.8133316],[43.2336044,20.8688889],[43.3849945,20.8333321],[43.6674957,20.9761086],[43.8347168,20.8394432],[44.059166,20.559166],[44.0630493,20.4972191],[43.9674988,20.3358307],[43.9213867,20.123333],[44.0872192,19.8888855],[44.4963837,19.5258331],[44.9152756,19.2927742],[45.3694382,19.2547188],[46.0630493,19.3119431],[46.9738846,19.392498],[47.7450104,19.5311317],[47.5116653,17.7744408],[47.466699,17.1166985],[47.1833011,16.9499956],[47.000224,16.9510266],[46.7500006,17.2832995],[46.3667159,17.2333005],[46.0999595,17.2500037],[45.4000024,17.3333006],[45.21722,17.4351791],[44.6497176,17.435138],[44.5666849,17.4074106],[44.3886289,17.435148],[44.1380134,17.4088972],[44.1108073,17.3663987],[44.066693,17.4057998],[44.0112954,17.4024274],[43.9666616,17.3305504],[43.8319492,17.3388828],[43.7888948,17.3749999],[43.6833043,17.3666956],[43.4846004,17.5450997],[43.3547998,17.5563992],[43.2408107,17.480495],[43.2564979,17.4578068],[43.2254991,17.4261998],[43.2471,17.4015037],[43.2279994,17.3855006],[43.3365018,17.3039985],[43.2040853,17.2602166],[43.2163008,17.2103987],[43.1580011,17.114097],[43.1601986,17.0869994],[43.2272124,17.0753815],[43.248588,17.0153166],[43.1808997,17.032099],[43.1946993,16.9445005],[43.1375029,16.9105999],[43.2666,16.7948995],[43.2105888,16.7106776],[43.2336974,16.6505683],[43.1449193,16.6782461],[43.1155836,16.5317716],[42.9502602,16.4970249],[42.9479745,16.3997198],[42.8305344,16.3795622],[42.7730651,16.4030826],[42.7782061,16.4686146],[42.7148645,16.5680872],[42.7312451,16.6622415],[42.7068199,16.6722711],[42.7367779,16.6687387],[42.6862709,16.7395722],[42.7082854,16.7318844],[42.6325042,16.8226936],[42.5249534,16.8828232],[42.5559465,17.0026365],[42.4522235,17.0558069],[42.415149,17.1051469],[42.4248455,17.1590686],[42.3590975,17.190142],[42.3965293,17.1159766],[42.3691585,17.101723],[42.3718478,17.0147567],[42.3159543,17.4397446],[42.2752142,17.4476843],[42.1801801,17.5593396],[42.1439796,17.5581765],[42.1146016,17.6258179],[41.8754396,17.7920881],[41.891459,17.8066389],[41.7740034,17.8379377],[41.659823,17.983916],[41.6689236,18.0167347],[41.6375796,17.998376],[41.6431045,18.053122],[41.5845124,18.0943245],[41.6388855,18.1997185],[41.7555542,18.2752762],[41.8141632,18.4913864],[41.7074966,18.7624969],[41.4499969,18.78722],[41.4108276,18.8161087],[41.3827744,18.9194412],[41.3886108,19.1544418],[41.3969421,19.1952744],[41.4758301,19.1452751],[41.5883331,19.223053],[41.7908325,19.221386],[41.8488846,19.2613869],[41.8938828,19.4077759],[41.8302765,19.5299988],[41.8622208,19.7619438],[41.808609,19.8136101],[41.6977768,19.7930527]]],[[[42.2725446,16.4268597],[42.2706665,16.4085604],[42.2364314,16.4346235],[42.2494883,16.4354383],[42.2725446,16.4268597]]],[[[42.059187,16.5603744],[42.0695622,16.544822],[42.0450515,16.5249175],[42.0387949,16.559056],[42.059187,16.5603744]]],[[[41.9844271,16.5891563],[41.9733101,16.5918256],[41.995198,16.6001206],[41.9844271,16.5891563]]],[[[42.0106788,16.651683],[42.041582,16.6471086],[42.0320474,16.5988486],[42.0349984,16.6326031],[42.0180891,16.6040531],[41.9972513,16.6225386],[42.0106788,16.651683]]],[[[41.7763245,16.8886087],[41.8545582,16.8429289],[41.8945089,16.7538023],[42.0003723,16.7475211],[42.0338183,16.709146],[42.0816858,16.7223098],[42.0326369,16.7509479],[42.0874396,16.8192273],[42.1240758,16.7450377],[42.1805027,16.722396],[42.1783075,16.7082106],[42.1641455,16.7045471],[42.1612145,16.690218],[42.1921697,16.7099438],[42.1897,16.5863701],[42.0731972,16.6308295],[42.1130314,16.6535206],[42.1023347,16.685299],[41.9762623,16.6673957],[41.8717168,16.7266973],[41.8158172,16.8043186],[41.7727611,16.8072493],[41.7885005,16.8401719],[41.754925,16.8898141],[41.7763245,16.8886087]]],[[[42.2129701,16.748832],[42.2125146,16.7434209],[42.2102693,16.7508545],[42.21703,16.7635574],[42.2129701,16.748832]]],[[[42.0093795,16.7948739],[42.0214585,16.7826968],[42.0158038,16.7684614],[42.0002502,16.789337],[42.0093795,16.7948739]]],[[[42.4540258,16.7825825],[42.4559526,16.7783584],[42.4474348,16.7858473],[42.4455247,16.7988227],[42.4540258,16.7825825]]],[[[42.0213713,16.8395679],[42.0396954,16.8382889],[41.9921591,16.8280763],[42.0053237,16.8404917],[42.0213713,16.8395679]]],[[[41.8875285,16.9194066],[41.930307,16.953964],[41.9349713,16.9031405],[41.9901355,16.8715361],[41.9232833,16.840951],[41.9947261,16.7923444],[41.9984405,16.7514822],[41.9848571,16.7829359],[41.8806105,16.8198499],[41.8369472,16.8990749],[41.8875285,16.9194066]]],[[[42.4112938,16.8792218],[42.4059213,16.8810848],[42.4034558,16.8854295],[42.4191177,16.8838256],[42.4112938,16.8792218]]]]}},{"type":"Feature","properties":{"shapeName":"West (Makka, Madinah, Tabuk)","shapeISO":"SAU-WEST","shapeGroup":"SAU","shapeType":"GDL_GROUP","sourceAdm1Names":"Makkah Region; Al Madinah Region; Tabuk Region"},"geometry":{"type":"MultiPolygon","coordinates":[[[[36.8994583,25.3805386],[36.9104603,25.3665458],[36.9080498,25.3585363],[36.8908701,25.3613781],[36.8994583,25.3805386]]],[[[36.850618,25.4199649],[36.8796399,25.4126689],[36.8972135,25.3956848],[36.8797121,25.3923463],[36.850618,25.4199649]]],[[[36.9071559,25.5576437],[36.9097947,25.5690007],[36.9341245,25.5230393],[36.904123,25.5444802],[36.9071559,25.5576437]]],[[[36.8468087,25.5701453],[36.870027,25.5563362],[36.8406445,25.5342965],[36.8273916,25.545934],[36.8468087,25.5701453]]],[[[36.9174035,25.6046109],[36.9294983,25.5942352],[36.9226877,25.5779313],[36.9074588,25.5972656],[36.9174035,25.6046109]]],[[[36.5120642,25.6497152],[36.5079455,25.6362699],[36.5469098,25.6248407],[36.5075698,25.6133718],[36.4820977,25.6443143],[36.5120642,25.6497152]]],[[[36.5726425,25.7480914],[36.5631014,25.7285127],[36.5835886,25.6983734],[36.5561882,25.7263392],[36.5726425,25.7480914]]],[[[36.5490695,25.7411379],[36.5512027,25.7271551],[36.5407467,25.7798364],[36.5453275,25.7781133],[36.5490695,25.7411379]]],[[[36.3808886,26.1742669],[36.3691008,26.1788099],[36.3595308,26.1860928],[36.3781547,26.1818042],[36.3808886,26.1742669]]],[[[36.0188445,26.9076002],[36.0195329,26.8923161],[35.9980653,26.9149551],[36.0089026,26.9148459],[36.0188445,26.9076002]]],[[[35.7729397,27.1090696],[35.7824014,27.0791831],[35.7529973,27.1336328],[35.7721668,27.1126846],[35.7729397,27.1090696]]],[[[35.1439184,27.7736163],[35.1467218,27.7713264],[35.1438582,27.7709312],[35.1248839,27.793668],[35.1439184,27.7736163]]],[[[34.6606135,27.9458624],[34.7056683,27.9583549],[34.7399318,27.9216872],[34.7070745,27.9031792],[34.6853368,27.9429683],[34.6691937,27.9215726],[34.6519285,27.9246681],[34.6606135,27.9458624]]],[[[35.1984628,27.9630676],[35.2132186,27.9409715],[35.2250349,27.9382092],[35.2088005,27.937313],[35.1945057,27.9464145],[35.183474,27.9738505],[35.1984628,27.9630676]]],[[[34.5155373,28.0123526],[34.5515265,27.9932354],[34.5032072,27.9809877],[34.5892467,27.9689297],[34.6222933,27.9215486],[34.5527967,27.9121747],[34.5024418,27.9452848],[34.4944055,28.0007594],[34.5155373,28.0123526]]],[[[35.0428345,28.058311],[35.0261836,28.0516138],[35.0262604,28.0711586],[35.0352173,28.069483],[35.0428345,28.058311]]],[[[34.7248645,28.0817086],[34.7321257,28.0733866],[34.7338084,28.0607619],[34.704503,28.0778477],[34.7248645,28.0817086]]],[[[40.8975832,19.2869276],[40.8993562,19.2760962],[40.8952262,19.2706033],[40.8881005,19.2875409],[40.8975832,19.2869276]]],[[[40.7583915,19.6804409],[40.7364509,19.6874768],[40.7349152,19.6837588],[40.7298434,19.6796883],[40.7583915,19.6804409]]],[[[40.2140507,20.1633873],[40.2282178,20.1617441],[40.2230099,20.1583038],[40.1990713,20.1658076],[40.2140507,20.1633873]]],[[[40.0397666,20.2407255],[40.089625,20.2306378],[40.1967629,20.1671108],[40.0271745,20.2343619],[39.9959564,20.2590052],[40.0397666,20.2407255]]],[[[41.9841614,23.7683296],[42.1047211,23.680275],[42.2249985,23.2727776],[42.3744431,22.9705544],[42.4616623,22.9266663],[42.9605484,22.8869438],[43.0138855,22.8363876],[42.9808273,22.6138878],[43.0174942,22.5516663],[43.1249924,22.5172195],[43.288887,22.556942],[43.4761047,22.5188866],[43.457222,22.310276],[43.5091629,21.9561081],[43.4216614,21.7999992],[43.4374924,21.6116638],[43.3863831,21.3813858],[43.6674957,20.9761086],[43.3849945,20.8333321],[43.2336044,20.8688889],[42.9444427,20.8133316],[42.8208313,20.7094421],[42.6347198,20.6258316],[42.274437,20.3419418],[42.1674957,20.3766632],[42.0366592,20.6197205],[41.9744415,20.6774979],[41.5194397,20.5655518],[41.4638824,20.6055527],[41.3913879,20.748333],[41.3066635,20.7627754],[41.2449951,20.7177773],[41.2247162,20.6599998],[41.2533264,20.471386],[41.1355515,20.2472191],[40.9111099,20.1963882],[40.7930527,20.0649986],[40.9536057,19.9541664],[40.9633331,19.5802765],[41.2138824,19.3663864],[41.3530502,19.3961105],[41.4277725,19.6433296],[41.4974976,19.765831],[41.7649994,19.8188858],[41.8286057,19.805275],[41.8622208,19.7619438],[41.8302765,19.5299988],[41.8938828,19.4077759],[41.8349991,19.2419434],[41.6111069,19.2299995],[41.4758301,19.1452751],[41.3969421,19.1952744],[41.390831,19.1752777],[41.3827744,18.9194412],[41.4108276,18.8161087],[41.4499969,18.78722],[41.7074966,18.7624969],[41.8141632,18.4913864],[41.7555542,18.2752762],[41.6388855,18.1997185],[41.585602,18.0952104],[41.5276444,18.2384469],[41.4908117,18.234039],[41.5156136,18.2728386],[41.4728087,18.2942466],[41.4384023,18.4823357],[41.4158896,18.473615],[41.4184865,18.5145091],[41.3585415,18.580005],[41.2566569,18.6120154],[41.2086148,18.7073196],[41.2433508,18.8466546],[41.1604676,18.8826785],[41.1296139,18.955631],[41.1613321,19.0860374],[41.0725166,19.1201637],[41.0450521,19.2631962],[40.9528413,19.3509644],[40.9627298,19.4968287],[40.777321,19.6099681],[40.8067662,19.6192011],[40.7940392,19.7328666],[40.7371059,19.7983079],[40.649735,19.7930851],[40.6844055,19.753241],[40.6491544,19.7630957],[40.5362768,19.9033964],[40.5385282,19.967231],[40.3907328,20.0691283],[40.2863362,20.0996591],[40.2309201,20.1586353],[40.2360898,20.1918159],[40.168988,20.1907299],[40.1117514,20.2729867],[39.9899853,20.26406],[39.9383666,20.3020698],[39.9009796,20.3032962],[39.9417826,20.280163],[39.9542556,20.2669625],[39.9476645,20.2600455],[39.7305227,20.3916473],[39.5836926,20.5649975],[39.6199657,20.5588795],[39.5328785,20.6413023],[39.4864534,20.7265052],[39.5020767,20.7328983],[39.4980735,20.7643268],[39.4594083,20.7894137],[39.4900208,20.7293278],[39.4562601,20.744099],[39.4236061,20.8182315],[39.4545075,20.7988257],[39.4564984,20.8234135],[39.3634776,20.8671564],[39.3713575,20.9019551],[39.3077054,20.9259794],[39.266785,21.0347194],[39.1902188,21.1016468],[39.1661856,21.2161354],[39.0986033,21.323579],[39.176192,21.3754986],[39.1894828,21.4146086],[39.1687012,21.4449679],[39.1545436,21.4287659],[39.1544714,21.4447404],[39.1745592,21.4467215],[39.1479062,21.4742372],[39.1533972,21.4912135],[39.1768579,21.4807194],[39.185184,21.492939],[39.1561382,21.5344024],[39.1312386,21.5091185],[39.1115406,21.5340115],[39.0858878,21.704288],[39.0944542,21.7059938],[39.0995089,21.7173297],[39.1134739,21.720476],[39.140193,21.7675768],[39.1724385,21.7790232],[39.1319891,21.7652796],[39.1115427,21.723506],[39.0827238,21.7096239],[39.0132322,21.8176434],[39.0391616,21.838702],[39.0219354,21.8339615],[39.0142409,21.8210766],[39.0095529,21.8208193],[38.9494063,21.9073282],[38.9704371,21.9505688],[38.9300401,22.0121181],[38.9913396,22.0386537],[38.9647006,21.9856082],[39.0081836,21.9854827],[39.0150937,22.0615692],[39.0536644,22.062547],[39.0619502,22.1455053],[39.0526988,22.1648196],[39.0356738,22.0982738],[39.0178601,22.0947923],[39.04096125926123,22.203318925351],[39.0976207,22.2822953],[39.1076801,22.3370435],[39.0890586,22.3490027],[39.1106665,22.3436924],[39.1431717,22.4066366],[39.1078929,22.4063047],[39.1232363,22.3787442],[39.0959545,22.3602246],[39.0777351,22.5088987],[39.1010966,22.5262685],[38.9879196,22.7290711],[39.0090082,22.7367143],[39.0028059,22.7443778],[39.012253,22.7508309],[39.0115603,22.7600995],[38.9862995,22.7412848],[38.8494124,22.9380955],[38.9218399,22.8516072],[38.9725348,22.8630814],[38.9189991,22.9575495],[38.8313747,22.9984156],[38.8325233,22.9690671],[38.7982662,23.0086749],[38.8122008,23.0877295],[38.809242,23.1142432],[38.7829482,23.1953049],[38.7626501,23.176997],[38.6841176,23.2981146],[38.6971371,23.3334096],[38.6681078,23.3477674],[38.6049888,23.571331],[38.5564207,23.5632196],[38.5972905,23.5314094],[38.5430962,23.5400123],[38.5168214,23.624112],[38.5388636,23.6326741],[38.4915988,23.6615399],[38.4635486,23.7801121],[38.2815091,23.9416216],[38.2491217,23.9319249],[38.0816622,24.076803],[38.0388667,24.0697652],[37.9337754,24.1450086],[37.9910883,24.1569699],[37.9346307,24.165852],[37.9519418,24.2102422],[37.9119211,24.1973498],[37.9289031,24.1462506],[37.8640653,24.1513151],[37.6919978,24.3010121],[37.6162517,24.2942934],[37.6305143,24.2473254],[37.5757912,24.2463082],[37.4269176,24.3693967],[37.4613606,24.4366601],[37.3371675,24.6358062],[37.3187512,24.623507],[37.2935373,24.6767462],[37.2212996,24.7067857],[37.2302177,24.7930916],[37.1773085,24.8067365],[37.1755578,24.791534],[37.1552078,24.8238341],[37.2225895,24.8141006],[37.265827,24.867358],[37.2489161,24.9065292],[37.2859814,24.9905868],[37.2442852,25.0637834],[37.2669935,25.1037257],[37.2390832,25.190222],[37.110919,25.313425],[37.0768962,25.4421399],[36.9994431,25.4995054],[36.9388173,25.6463332],[36.8751096,25.6698588],[36.82111,25.7513804],[36.8108751,25.7518695],[36.810234,25.7558476],[36.8030798,25.7586975],[36.7999632,25.7582651],[36.8006026,25.7081126],[36.7457928,25.7386578],[36.6444432,25.8515173],[36.6945322,25.9217724],[36.7057866,26.0307568],[36.5739404,26.0622402],[36.4961321,26.1165218],[36.4635804,26.2271813],[36.246588,26.6127205],[36.0980958,26.7408358],[36.032923,26.9066113],[35.800038,27.1134489],[35.8072753,27.2252028],[35.7408294,27.3228505],[35.5921094,27.4337066],[35.5348333,27.5314498],[35.528829,27.6218187],[35.4860312,27.6506223],[35.4294142,27.773776],[35.3603748,27.7965743],[35.2674771,27.9499793],[35.1653402,28.0013978],[35.2223335,28.046521],[35.0132799,28.1213718],[35.0335467,28.0885394],[34.9979945,28.1105366],[34.8487905,28.070321],[34.8486544,28.1131461],[34.7957445,28.0714108],[34.8138004,28.1105252],[34.7564342,28.0969978],[34.7700783,28.0623567],[34.7390119,28.0597954],[34.7547696,28.1016487],[34.6839166,28.1337877],[34.6243452,28.0240178],[34.6096035,28.0956308],[34.5740578,28.0872654],[34.6314246,28.1737766],[34.6587081,28.1643182],[34.6764197,28.2669859],[34.8055277,28.5230476],[34.7751268,28.6621277],[34.8343642,28.81158],[34.8471663,29.0280965],[34.9095341,29.2206083],[34.9411333,29.2407256],[34.9571625,29.3561058],[36.0728117,29.183401],[36.5045358,29.4999408],[36.7535363,29.8684958],[37.5016142,29.9998026],[37.6043567,29.8964266],[37.9216205,29.6973088],[38.2051752,29.6060905],[38.3974487,29.5053191],[38.2509558,29.3210676],[38.2042583,29.2249693],[38.2233252,29.1849686],[38.4879744,29.2535246],[38.5805844,29.2355681],[38.9668317,29.0149997],[39.3131222,28.7521771],[39.7682789,28.5860738],[39.7911876,28.5447658],[39.7341134,28.4529794],[39.5022069,28.2383689],[39.3651919,28.0477776],[39.4028499,27.9808902],[39.7040727,27.8657686],[39.8323887,27.7646342],[39.9083913,27.6058284],[39.9248688,27.4283137],[40.0110057,27.2786605],[39.9864746,27.1233167],[39.8983171,27.16504],[39.8871073,27.2093144],[39.7855396,27.2302054],[39.733497,27.1198759],[39.502297,26.8582799],[39.4931584,26.8113931],[39.5140834,26.7525958],[39.6593155,26.7307731],[39.6681289,26.6667362],[39.7610371,26.5978446],[39.8861978,26.3976213],[39.8880581,26.2643478],[39.9619854,26.1495301],[39.9780071,25.4307275],[40.1104193,25.3436804],[40.4542982,25.2909779],[40.456545,25.3827402],[40.5074613,25.4372791],[40.5925613,25.405605],[40.7140263,25.4171523],[40.8310467,25.5622029],[41.0636996,25.5681031],[41.1744315,25.4895396],[41.3773293,25.4655238],[41.4344158,25.358804],[41.6459223,25.2720967],[41.701798,25.1798332],[41.8180729,25.1207145],[42.0279157,24.9133935],[42.1372697,24.8514229],[42.0905457,24.5433273],[41.9988785,24.4152756],[42.0261078,24.3194427],[41.9852676,24.1897163],[41.9841614,23.7683296]]],[[[39.09714,22.3193075],[39.0981881,22.3039305],[39.093888,22.3029168],[39.0917258,22.3264895],[39.09714,22.3193075]]],[[[38.9254249,22.8998826],[38.9265411,22.8911296],[38.942801,22.8800655],[38.9250151,22.8859797],[38.9254249,22.8998826]]],[[[38.8622998,22.942578],[38.8472828,22.9479708],[38.8428251,22.9564624],[38.8508893,22.954668],[38.8622998,22.942578]]],[[[38.7860457,23.1739411],[38.7912062,23.1677693],[38.7872014,23.1474257],[38.7743602,23.1682611],[38.7860457,23.1739411]]],[[[37.1999496,24.8005781],[37.2166976,24.7924165],[37.1983427,24.7752141],[37.1815769,24.7943095],[37.1999496,24.8005781]]],[[[37.0678208,24.9771069],[37.0946159,24.9784815],[37.1114367,24.9491067],[37.0653045,24.9575199],[37.0678208,24.9771069]]],[[[36.9820263,25.4730253],[37.0232833,25.4458016],[37.0235353,25.4303686],[36.9826763,25.4340575],[36.9820263,25.4730253]]],[[[36.9690662,25.5021748],[36.9862257,25.4931501],[36.9402284,25.4976562],[36.9526892,25.5150674],[36.9690662,25.5021748]]],[[[36.9655497,25.5257945],[36.9535784,25.5294866],[36.9482526,25.5425325],[36.9527931,25.542339],[36.9655497,25.5257945]]]]}}],"source":{"provider":"geoBoundaries gbOpen ADM1, grouped to match GDL SHDI Saudi macro-regions","api":"https://www.geoboundaries.org/api/current/gbOpen/SAU/ADM1/","download_url":"https://github.com/wmgeolab/geoBoundaries/raw/9469f09/releaseData/gbOpen/SAU/ADM1/geoBoundaries-SAU-ADM1_simplified.geojson","boundary_id":"SAU-ADM1-25081817","boundary_year_represented":"2017","boundary_license":"Open Data Commons Open Database License 1.0","download_sha256":"cf50a59ddcda0fc4539c12799c320b9936fd75f47c1b5562ef548436d9169e13","grouping_note":"GDL Saudi rows use five macro-regions; polygons are unions of listed ADM1 regions and are not national fanout."}}